STARLINK-35447          
1 66589U 25270B   25355.79563709  .00019277  00000+0  46734-3 0  9998
2 66589  43.0008 140.3570 0001618 273.5190  86.5481 15.40715065  5858
STARLINK-35429          
1 66590U 25270C   25355.83335647  .00089175  00000+0  21204-2 0  9991
2 66590  43.0005 139.9320 0001546 278.5196  18.0910 15.40653182  5965
STARLINK-36058          
1 66591U 25270D   25355.83335647  .00083803  00000+0  19932-2 0  9999
2 66591  43.0001 139.7197 0001617 308.2056  75.3707 15.40673624  5869
STARLINK-36066          
1 66592U 25270E   25355.80458625  .00029387  00000+0  70721-3 0  9990
2 66592  43.0002 140.4255 0005107 247.9070 112.1244 15.40725430  5643
STARLINK-36031          
1 66593U 25270F   25355.72408718  .00038452  00000+0  92206-3 0  9995
2 66593  43.0018 140.6790 0003189 281.8549  78.1950 15.40731859  5730
STARLINK-36032          
1 66594U 25270G   25355.83335647  .00100926  00000+0  23935-2 0  9996
2 66594  43.0000 139.8104 0001453 267.2083  79.1044 15.40674347  5591
STARLINK-35711          
1 66595U 25270H   25354.14028475  .00071426  00000+0  12293-2 0  9995
2 66595  42.9990 149.4265 0003421 341.0071  19.0661 15.50181840  5600
STARLINK-35811          
1 66596U 25270J   25355.74424038  .00036330  00000+0  87176-3 0  9996
2 66596  43.0021 140.8369 0004525 268.1923  91.8415 15.40729459  5843
STARLINK-35820          
1 66597U 25270K   25354.50354834  .00046603  00000+0  11150-2 0  9998
2 66597  42.9989 147.8597 0002328 279.6537  80.4056 15.40728378  5655
STARLINK-35981          
1 66598U 25270L   25355.71963047  .00031163  00000+0  74972-3 0  9992
2 66598  42.9995 140.6423 0002474 263.4053  96.6522 15.40718851  5582
STARLINK-35930          
1 66599U 25270M   25353.17264613 -.00000514  00000+0 -29650-5 0  9997
2 66599  42.9985 155.0670 0002903 324.1890  35.8775 15.50348464  5346
STARLINK-35980          
1 66600U 25270N   25355.83335647  .00099950  00000+0  23719-2 0  9998
2 66600  43.0003 139.8698 0001753 279.5794  41.8986 15.40659804  5769
STARLINK-35978          
1 66601U 25270P   25354.82096980  .00041566  00000+0  99616-3 0  9991
2 66601  43.0002 145.9420 0001493 271.2844  88.7841 15.40722377  5436
STARLINK-36050          
1 66602U 25270Q   25355.80681807  .00018872  00000+0  45714-3 0  9993
2 66602  43.0010 140.4448 0003448 267.6242  92.4220 15.40749090  5646
STARLINK-36048          
1 66603U 25270R   25355.72184829  .00041131  00000+0  98557-3 0  9994
2 66603  43.0016 140.6600 0001388 277.9938  82.0761 15.40731069  5633
STARLINK-35977          
1 66604U 25270S   25355.78219160  .00060744  00000+0  14479-2 0  9999
2 66604  42.9996 140.2510 0003052 264.9262  95.1246 15.40738163  5748
STARLINK-36052          
1 66605U 25270T   25355.83335647  .00097230  00000+0  23079-2 0  9991
2 66605  43.0002 139.7780 0002025 286.6687  72.0972 15.40665141  5860
