[{"OBJECT_NAME":"STARLINK-35447","OBJECT_ID":"2025-270B","EPOCH":"2025-12-21T19:05:43.044576","MEAN_MOTION":15.40715065,"ECCENTRICITY":0.0001618,"INCLINATION":43.0008,"RA_OF_ASC_NODE":140.357,"ARG_OF_PERICENTER":273.519,"MEAN_ANOMALY":86.5481,"EPHEMERIS_TYPE":0,"CLASSIFICATION_TYPE":"U","NORAD_CAT_ID":66589,"ELEMENT_SET_NO":999,"REV_AT_EPOCH":585,"BSTAR":0.00046734,"MEAN_MOTION_DOT":0.00019277,"MEAN_MOTION_DDOT":0},{"OBJECT_NAME":"STARLINK-35429","OBJECT_ID":"2025-270C","EPOCH":"2025-12-21T20:00:01.999008","MEAN_MOTION":15.40653182,"ECCENTRICITY":0.0001546,"INCLINATION":43.0005,"RA_OF_ASC_NODE":139.932,"ARG_OF_PERICENTER":278.5196,"MEAN_ANOMALY":18.091,"EPHEMERIS_TYPE":0,"CLASSIFICATION_TYPE":"U","NORAD_CAT_ID":66590,"ELEMENT_SET_NO":999,"REV_AT_EPOCH":596,"BSTAR":0.0021204,"MEAN_MOTION_DOT":0.00089175,"MEAN_MOTION_DDOT":0},{"OBJECT_NAME":"STARLINK-36058","OBJECT_ID":"2025-270D","EPOCH":"2025-12-21T20:00:01.999008","MEAN_MOTION":15.40673624,"ECCENTRICITY":0.0001617,"INCLINATION":43.0001,"RA_OF_ASC_NODE":139.7197,"ARG_OF_PERICENTER":308.2056,"MEAN_ANOMALY":75.3707,"EPHEMERIS_TYPE":0,"CLASSIFICATION_TYPE":"U","NORAD_CAT_ID":66591,"ELEMENT_SET_NO":999,"REV_AT_EPOCH":586,"BSTAR":0.0019932,"MEAN_MOTION_DOT":0.00083803,"MEAN_MOTION_DDOT":0},{"OBJECT_NAME":"STARLINK-36066","OBJECT_ID":"2025-270E","EPOCH":"2025-12-21T19:18:36.252000","MEAN_MOTION":15.4072543,"ECCENTRICITY":0.0005107,"INCLINATION":43.0002,"RA_OF_ASC_NODE":140.4255,"ARG_OF_PERICENTER":247.907,"MEAN_ANOMALY":112.1244,"EPHEMERIS_TYPE":0,"CLASSIFICATION_TYPE":"U","NORAD_CAT_ID":66592,"ELEMENT_SET_NO":999,"REV_AT_EPOCH":564,"BSTAR":0.00070721,"MEAN_MOTION_DOT":0.00029387,"MEAN_MOTION_DDOT":0},{"OBJECT_NAME":"STARLINK-36031","OBJECT_ID":"2025-270F","EPOCH":"2025-12-21T17:22:41.132352","MEAN_MOTION":15.40731859,"ECCENTRICITY":0.0003189,"INCLINATION":43.0018,"RA_OF_ASC_NODE":140.679,"ARG_OF_PERICENTER":281.8549,"MEAN_ANOMALY":78.195,"EPHEMERIS_TYPE":0,"CLASSIFICATION_TYPE":"U","NORAD_CAT_ID":66593,"ELEMENT_SET_NO":999,"REV_AT_EPOCH":573,"BSTAR":0.00092206,"MEAN_MOTION_DOT":0.00038452,"MEAN_MOTION_DDOT":0},{"OBJECT_NAME":"STARLINK-36032","OBJECT_ID":"2025-270G","EPOCH":"2025-12-21T20:00:01.999008","MEAN_MOTION":15.40674347,"ECCENTRICITY":0.0001453,"INCLINATION":43,"RA_OF_ASC_NODE":139.8104,"ARG_OF_PERICENTER":267.2083,"MEAN_ANOMALY":79.1044,"EPHEMERIS_TYPE":0,"CLASSIFICATION_TYPE":"U","NORAD_CAT_ID":66594,"ELEMENT_SET_NO":999,"REV_AT_EPOCH":559,"BSTAR":0.0023935,"MEAN_MOTION_DOT":0.00100926,"MEAN_MOTION_DDOT":0},{"OBJECT_NAME":"STARLINK-35711","OBJECT_ID":"2025-270H","EPOCH":"2025-12-20T03:22:00.602400","MEAN_MOTION":15.5018184,"ECCENTRICITY":0.00034215,"INCLINATION":42.999,"RA_OF_ASC_NODE":149.4265,"ARG_OF_PERICENTER":341.0071,"MEAN_ANOMALY":19.0661,"EPHEMERIS_TYPE":0,"CLASSIFICATION_TYPE":"U","NORAD_CAT_ID":66595,"ELEMENT_SET_NO":999,"REV_AT_EPOCH":560,"BSTAR":0.0012292638,"MEAN_MOTION_DOT":0.00071426,"MEAN_MOTION_DDOT":0},{"OBJECT_NAME":"STARLINK-35811","OBJECT_ID":"2025-270J","EPOCH":"2025-12-21T17:51:42.368832","MEAN_MOTION":15.40729459,"ECCENTRICITY":0.0004525,"INCLINATION":43.0021,"RA_OF_ASC_NODE":140.8369,"ARG_OF_PERICENTER":268.1923,"MEAN_ANOMALY":91.8415,"EPHEMERIS_TYPE":0,"CLASSIFICATION_TYPE":"U","NORAD_CAT_ID":66596,"ELEMENT_SET_NO":999,"REV_AT_EPOCH":584,"BSTAR":0.00087176,"MEAN_MOTION_DOT":0.0003633,"MEAN_MOTION_DDOT":0},{"OBJECT_NAME":"STARLINK-35820","OBJECT_ID":"2025-270K","EPOCH":"2025-12-20T12:05:06.576576","MEAN_MOTION":15.40728378,"ECCENTRICITY":0.00023281,"INCLINATION":42.9989,"RA_OF_ASC_NODE":147.8597,"ARG_OF_PERICENTER":279.6537,"MEAN_ANOMALY":80.4056,"EPHEMERIS_TYPE":0,"CLASSIFICATION_TYPE":"U","NORAD_CAT_ID":66597,"ELEMENT_SET_NO":999,"REV_AT_EPOCH":565,"BSTAR":0.0011149945,"MEAN_MOTION_DOT":0.00046603,"MEAN_MOTION_DDOT":0},{"OBJECT_NAME":"STARLINK-35981","OBJECT_ID":"2025-270L","EPOCH":"2025-12-21T17:16:16.072608","MEAN_MOTION":15.40718851,"ECCENTRICITY":0.0002474,"INCLINATION":42.9995,"RA_OF_ASC_NODE":140.6423,"ARG_OF_PERICENTER":263.4053,"MEAN_ANOMALY":96.6522,"EPHEMERIS_TYPE":0,"CLASSIFICATION_TYPE":"U","NORAD_CAT_ID":66598,"ELEMENT_SET_NO":999,"REV_AT_EPOCH":558,"BSTAR":0.00074972,"MEAN_MOTION_DOT":0.00031163,"MEAN_MOTION_DDOT":0},{"OBJECT_NAME":"STARLINK-35930","OBJECT_ID":"2025-270M","EPOCH":"2025-12-19T04:08:36.625632","MEAN_MOTION":15.50348464,"ECCENTRICITY":0.0002903,"INCLINATION":42.9985,"RA_OF_ASC_NODE":155.067,"ARG_OF_PERICENTER":324.189,"MEAN_ANOMALY":35.8775,"EPHEMERIS_TYPE":0,"CLASSIFICATION_TYPE":"U","NORAD_CAT_ID":66599,"ELEMENT_SET_NO":999,"REV_AT_EPOCH":534,"BSTAR":-2.964998e-6,"MEAN_MOTION_DOT":-5.14e-6,"MEAN_MOTION_DDOT":0},{"OBJECT_NAME":"STARLINK-35980","OBJECT_ID":"2025-270N","EPOCH":"2025-12-21T20:00:01.999008","MEAN_MOTION":15.40659804,"ECCENTRICITY":0.0001753,"INCLINATION":43.0003,"RA_OF_ASC_NODE":139.8698,"ARG_OF_PERICENTER":279.5794,"MEAN_ANOMALY":41.8986,"EPHEMERIS_TYPE":0,"CLASSIFICATION_TYPE":"U","NORAD_CAT_ID":66600,"ELEMENT_SET_NO":999,"REV_AT_EPOCH":576,"BSTAR":0.0023719,"MEAN_MOTION_DOT":0.0009995,"MEAN_MOTION_DDOT":0},{"OBJECT_NAME":"STARLINK-35978","OBJECT_ID":"2025-270P","EPOCH":"2025-12-20T19:42:11.790720","MEAN_MOTION":15.40722377,"ECCENTRICITY":0.00014939,"INCLINATION":43.0002,"RA_OF_ASC_NODE":145.942,"ARG_OF_PERICENTER":271.2844,"MEAN_ANOMALY":88.7841,"EPHEMERIS_TYPE":0,"CLASSIFICATION_TYPE":"U","NORAD_CAT_ID":66601,"ELEMENT_SET_NO":999,"REV_AT_EPOCH":543,"BSTAR":0.00099615846,"MEAN_MOTION_DOT":0.00041566,"MEAN_MOTION_DDOT":0},{"OBJECT_NAME":"STARLINK-36050","OBJECT_ID":"2025-270Q","EPOCH":"2025-12-21T19:21:49.081248","MEAN_MOTION":15.4074909,"ECCENTRICITY":0.0003448,"INCLINATION":43.001,"RA_OF_ASC_NODE":140.4448,"ARG_OF_PERICENTER":267.6242,"MEAN_ANOMALY":92.422,"EPHEMERIS_TYPE":0,"CLASSIFICATION_TYPE":"U","NORAD_CAT_ID":66602,"ELEMENT_SET_NO":999,"REV_AT_EPOCH":564,"BSTAR":0.00045714,"MEAN_MOTION_DOT":0.00018872,"MEAN_MOTION_DDOT":0},{"OBJECT_NAME":"STARLINK-36048","OBJECT_ID":"2025-270R","EPOCH":"2025-12-21T17:19:27.692256","MEAN_MOTION":15.40731069,"ECCENTRICITY":0.0001388,"INCLINATION":43.0016,"RA_OF_ASC_NODE":140.66,"ARG_OF_PERICENTER":277.9938,"MEAN_ANOMALY":82.0761,"EPHEMERIS_TYPE":0,"CLASSIFICATION_TYPE":"U","NORAD_CAT_ID":66603,"ELEMENT_SET_NO":999,"REV_AT_EPOCH":563,"BSTAR":0.00098557,"MEAN_MOTION_DOT":0.00041131,"MEAN_MOTION_DDOT":0},{"OBJECT_NAME":"STARLINK-35977","OBJECT_ID":"2025-270S","EPOCH":"2025-12-21T18:46:21.354240","MEAN_MOTION":15.40738163,"ECCENTRICITY":0.0003052,"INCLINATION":42.9996,"RA_OF_ASC_NODE":140.251,"ARG_OF_PERICENTER":264.9262,"MEAN_ANOMALY":95.1246,"EPHEMERIS_TYPE":0,"CLASSIFICATION_TYPE":"U","NORAD_CAT_ID":66604,"ELEMENT_SET_NO":999,"REV_AT_EPOCH":574,"BSTAR":0.0014479,"MEAN_MOTION_DOT":0.00060744,"MEAN_MOTION_DDOT":0},{"OBJECT_NAME":"STARLINK-36052","OBJECT_ID":"2025-270T","EPOCH":"2025-12-21T20:00:01.999008","MEAN_MOTION":15.40665141,"ECCENTRICITY":0.0002025,"INCLINATION":43.0002,"RA_OF_ASC_NODE":139.778,"ARG_OF_PERICENTER":286.6687,"MEAN_ANOMALY":72.0972,"EPHEMERIS_TYPE":0,"CLASSIFICATION_TYPE":"U","NORAD_CAT_ID":66605,"ELEMENT_SET_NO":999,"REV_AT_EPOCH":586,"BSTAR":0.0023079,"MEAN_MOTION_DOT":0.0009723,"MEAN_MOTION_DDOT":0}]
